NORAD_CAT_ID,OBJECT_NAME,OBJECT_TYPE,EPOCH,MEAN_MOTION,ECCENTRICITY,INCLINATION,RA_OF_ASC_NODE,ARG_OF_PERICENTER,MEAN_ANOMALY,BSTAR,MEAN_MOTION_DOT,MEAN_MOTION_DDOT,TLE_LINE0,TLE_LINE1,TLE_LINE2,SEMIMAJOR_AXIS,PERIOD,APOGEE,PERIGEE,DECAYED
53635.0,STARLINK-4587,PAYLOAD,2023-01-27 20:40:45,15.08833642,0.0001462,53.2162,287.4774,69.9709,290.1441,-6.0132e-07,-2.98e-06,0.0,0 STARLINK-4587,1 53635U 22104AZ  23027.86163718 -.00000298  00000-0 -60132-6 0  9994,2 53635  53.2162 287.4774 0001462  69.9709 290.1441 15.08833642 24608,6917.9,95.438,540.776,538.753,0.0
53635.0,STARLINK-4587,PAYLOAD,2023-01-28 12:34:36,15.08835226,0.0001202,53.2167,284.5037,73.6375,286.475,4.9269e-05,4.96e-06,0.0,0 STARLINK-4587,1 53635U 22104AZ  23028.52403396  .00000496  00000-0  49269-4 0  9991,2 53635  53.2167 284.5037 0001202  73.6375 286.4750 15.08835226 23684,6917.895,95.438,540.592,538.928,0.0
53635.0,STARLINK-4587,PAYLOAD,2023-01-28 20:31:32,15.08840382,0.000136,53.2166,283.0171,68.9585,291.1553,6.2997e-06,-1.88e-06,0.0,0 STARLINK-4587,1 53635U 22104AZ  23028.85523407 -.00000188  00000-0  62997-5 0  9996,2 53635  53.2166 283.0171 0001360  68.9585 291.1553 15.08840382 24753,6917.879,95.438,540.685,538.803,0.0
53635.0,STARLINK-4587,PAYLOAD,2023-01-29 02:53:04,15.08845898,0.0001364,53.2164,281.8262,74.1487,285.9656,4.1549e-05,3.73e-06,0.0,0 STARLINK-4587,1 53635U 22104AZ  23029.12018816  .00000373  00000-0  41549-4 0  9994,2 53635  53.2164 281.8262 0001364  74.1487 285.9656 15.08845898 23775,6917.862,95.437,540.671,538.784,0.0
53635.0,STARLINK-4587,PAYLOAD,2023-01-29 17:11:33,15.08828694,0.0001054,53.2164,279.1509,78.6001,281.511,-5.9603e-05,-1.236e-05,0.0,0 STARLINK-4587,1 53635U 22104AZ  23029.71636420 -.00001236  00000-0 -59603-4 0  9997,2 53635  53.2164 279.1509 0001054  78.6001 281.5110 15.08828694 23868,6917.915,95.438,540.509,539.051,0.0
53635.0,STARLINK-4587,PAYLOAD,2023-01-29 20:22:19,15.08834661,0.0001235,53.2169,278.5552,83.8303,276.2829,-3.0073e-05,-7.66e-06,0.0,0 STARLINK-4587,1 53635U 22104AZ  23029.84884020 -.00000766  00000-0 -30073-4 0  9999,2 53635  53.2169 278.5552 0001235  83.8303 276.2829 15.08834661 24903,6917.897,95.438,540.616,538.907,0.0
53635.0,STARLINK-4587,PAYLOAD,2023-01-30 02:43:52,15.08837431,0.0001272,53.2163,277.3663,85.0118,275.1019,1.0218e-05,-1.25e-06,0.0,0 STARLINK-4587,1 53635U 22104AZ  23030.11379762 -.00000125  00000-0  10218-4 0  9990,2 53635  53.2163 277.3663 0001272  85.0118 275.1019 15.08837431 23924,6917.888,95.438,540.633,538.873,0.0
53635.0,STARLINK-4587,PAYLOAD,2023-01-30 21:48:29,15.08837622,0.0001253,53.2161,273.7976,87.2211,272.8924,1.3924e-05,-6.6e-07,0.0,0 STARLINK-4587,1 53635U 22104AZ  23030.90867913 -.00000066  00000-0  13924-4 0  9998,2 53635  53.2161 273.7976 0001253  87.2211 272.8924 15.08837622 25064,6917.888,95.438,540.619,538.886,0.0
53635.0,STARLINK-4587,PAYLOAD,2023-01-31 00:59:15,15.08842224,0.0001247,53.2163,273.2027,86.5143,273.5992,3.5476e-06,-2.31e-06,0.0,0 STARLINK-4587,1 53635U 22104AZ  23031.04115671 -.00000231  00000-0  35476-5 0  9992,2 53635  53.2163 273.2027 0001247  86.5143 273.5992 15.08842224 25086,6917.874,95.437,540.601,538.876,0.0
53635.0,STARLINK-4587,PAYLOAD,2023-01-31 18:28:30,15.08838913,0.0001222,53.2164,269.9312,91.6372,268.476,3.7457e-05,3.08e-06,0.0,0 STARLINK-4587,1 53635U 22104AZ  23031.76979779  .00000308  00000-0  37457-4 0  9992,2 53635  53.2164 269.9312 0001222  91.6372 268.4760 15.08838913 24175,6917.884,95.438,540.594,538.903,0.0
53635.0,STARLINK-4587,PAYLOAD,2023-02-01 00:50:02,15.08845628,0.0001272,53.2157,268.742,96.9998,263.1139,8.9156e-05,1.132e-05,0.0,0 STARLINK-4587,1 53635U 22104AZ  23032.03475123  .00001132  00000-0  89156-4 0  9996,2 53635  53.2157 268.7420 0001272  96.9998 263.1139 15.08845628 24219,6917.863,95.437,540.608,538.848,0.0
53635.0,STARLINK-4587,PAYLOAD,2023-02-01 18:19:17,15.08837937,0.0001274,53.2171,265.4682,95.8377,264.276,-2.759e-05,-7.27e-06,0.0,0 STARLINK-4587,1 53635U 22104AZ  23032.76340079 -.00000727  00000-0 -27590-4 0  9992,2 53635  53.2171 265.4682 0001274  95.8377 264.2760 15.08837937 24328,6917.887,95.438,540.633,538.87,0.0
53635.0,STARLINK-4587,PAYLOAD,2023-02-02 11:48:32,15.08840139,0.000104,53.2159,262.2011,91.512,268.5991,-6.6553e-06,-3.94e-06,0.0,0 STARLINK-4587,1 53635U 22104AZ  23033.49203767 -.00000394  00000-0 -66553-5 0  9998,2 53635  53.2159 262.2011 0001040  91.5120 268.5991 15.08840139 25451,6917.88,95.438,540.464,539.026,0.0
53635.0,STARLINK-4587,PAYLOAD,2023-02-02 21:20:50,15.08857789,0.000109,53.2161,260.416,83.2731,276.8386,-0.00013573,-2.448e-05,0.0,0 STARLINK-4587,1 53635U 22104AZ  23033.88947170 -.00002448  00000-0 -13573-3 0  9998,2 53635  53.2161 260.4160 0001090  83.2731 276.8386 15.08857789 24492,6917.826,95.436,540.445,538.937,0.0
53635.0,STARLINK-4587,PAYLOAD,2023-02-03 14:50:05,15.08831403,0.0001045,53.2163,257.1447,95.9131,264.198,9.9699e-05,1.299e-05,0.0,0 STARLINK-4587,1 53635U 22104AZ  23034.61811629  .00001299  00000-0  99699-4 0  9994,2 53635  53.2163 257.1447 0001045  95.9131 264.1980 15.08831403 24607,6917.907,95.438,540.495,539.049,0.0
53635.0,STARLINK-4587,PAYLOAD,2023-02-03 18:00:51,15.08831222,0.0001096,53.2162,256.5498,96.7103,263.4014,0.00010471,1.379e-05,0.0,0 STARLINK-4587,1 53635U 22104AZ  23034.75059669  .00001379  00000-0  10471-3 0  9996,2 53635  53.2162 256.5498 0001096  96.7103 263.4014 15.08831222 25643,6917.907,95.438,540.53,539.014,0.0
53635.0,STARLINK-4587,PAYLOAD,2023-02-04 09:54:42,15.08837776,0.000114,53.216,253.5759,91.2366,268.8757,-7.7954e-06,-4.12e-06,0.0,0 STARLINK-4587,1 53635U 22104AZ  23035.41299768 -.00000412  00000-0 -77954-5 0  9996,2 53635  53.2160 253.5759 0001140  91.2366 268.8757 15.08837776 25743,6917.887,95.438,540.541,538.964,0.0
53635.0,STARLINK-4587,PAYLOAD,2023-02-04 21:02:24,15.08839268,0.0001087,53.2162,251.4951,84.2756,275.836,3.0198e-06,-2.4e-06,0.0,0 STARLINK-4587,1 53635U 22104AZ  23035.87667672 -.00000240  00000-0  30198-5 0  9996,2 53635  53.2162 251.4951 0001087  84.2756 275.8360 15.08839268 24791,6917.883,95.438,540.5,538.996,0.0
53635.0,STARLINK-4587,PAYLOAD,2023-02-05 14:31:39,15.08834116,0.0001136,53.2161,248.2239,83.8415,276.2706,-3.1607e-05,-7.91e-06,0.0,0 STARLINK-4587,1 53635U 22104AZ  23036.60532205 -.00000791  00000-0 -31607-4 0  9998,2 53635  53.2161 248.2239 0001136  83.8415 276.2706 15.08834116 25927,6917.898,95.438,540.549,538.978,0.0
53635.0,STARLINK-4587,PAYLOAD,2023-02-05 20:53:12,15.08837062,0.000113,53.2162,247.0345,83.6179,276.4942,-5.6072e-06,-3.77e-06,0.0,0 STARLINK-4587,1 53635U 22104AZ  23036.87027983 -.00000377  00000-0 -56072-5 0  9993,2 53635  53.2162 247.0345 0001130  83.6179 276.4942 15.08837062 25963,6917.889,95.438,540.536,538.973,0.0
53635.0,STARLINK-4587,PAYLOAD,2023-02-06 20:43:59,15.08839317,0.0001108,53.2165,242.5746,82.344,277.7678,4.1762e-05,3.77e-06,0.0,0 STARLINK-4587,1 53635U 22104AZ  23037.86387837  .00000377  00000-0  41762-4 0  9997,2 53635  53.2165 242.5746 0001108  82.3440 277.7678 15.08839317 25092,6917.882,95.438,540.514,538.981,0.0
53635.0,STARLINK-4587,PAYLOAD,2023-02-06 22:19:22,15.08842742,0.000115,53.2165,242.2768,82.2204,277.8919,4.4095e-05,4.14e-06,0.0,0 STARLINK-4587,1 53635U 22104AZ  23037.93011616  .00000414  00000-0  44095-4 0  9998,2 53635  53.2165 242.2768 0001150  82.2204 277.8919 15.08842742 26127,6917.872,95.437,540.533,538.941,0.0
53635.0,STARLINK-4587,PAYLOAD,2023-02-07 20:34:46,15.08835055,0.000105,53.2165,238.1144,88.319,271.7923,2.551e-05,1.18e-06,0.0,0 STARLINK-4587,1 53635U 22104AZ  23038.85748345  .00000118  00000-0  25510-4 0  9998,2 53635  53.2165 238.1144 0001050  88.3190 271.7923 15.08835055 26261,6917.896,95.438,540.487,539.034,0.0
53635.0,STARLINK-4587,PAYLOAD,2023-02-08 06:07:05,15.08834979,0.0001158,53.2174,236.3279,76.8819,283.2302,-5.741e-06,-3.79e-06,0.0,0 STARLINK-4587,1 53635U 22104AZ  23039.25492577 -.00000379  00000-0 -57410-5 0  9992,2 53635  53.2174 236.3279 0001158  76.8819 283.2302 15.08834979 25306,6917.896,95.438,540.562,538.96,0.0
53635.0,STARLINK-4587,PAYLOAD,2023-02-08 07:42:28,15.08833309,0.0001115,53.2166,236.0321,81.1983,278.9135,-1.648e-05,-5.5e-06,0.0,0 STARLINK-4587,1 53635U 22104AZ  23039.32116738 -.00000550  00000-0 -16480-4 0  9994,2 53635  53.2166 236.0321 0001115  81.1983 278.9135 15.08833309 26331,6917.901,95.438,540.537,538.994,0.0
53635.0,STARLINK-4587,PAYLOAD,2023-02-08 20:25:34,15.08819002,0.0001047,53.2165,233.6526,106.9853,253.1254,0.00022086,3.227e-05,0.0,0 STARLINK-4587,1 53635U 22104AZ  23039.85108807  .00003227  00000-0  22086-3 0  9990,2 53635  53.2165 233.6526 0001047 106.9853 253.1254 15.08819002 26416,6917.945,95.439,540.534,539.085,0.0
53635.0,STARLINK-4587,PAYLOAD,2023-02-09 07:33:15,15.08841622,0.0001217,53.2165,231.5711,78.9486,281.1643,-5.51e-05,-1.165e-05,0.0,0 STARLINK-4587,1 53635U 22104AZ  23040.31476563 -.00001165  00000-0 -55100-4 0  9995,2 53635  53.2165 231.5711 0001217  78.9486 281.1643 15.08841622 26481,6917.875,95.437,540.582,538.899,0.0
53635.0,STARLINK-4587,PAYLOAD,2023-02-09 18:40:57,15.08838701,0.0001192,53.2165,229.4899,77.0081,283.1045,3.0328e-05,1.95e-06,0.0,0 STARLINK-4587,1 53635U 22104AZ  23040.77844600  .00000195  00000-0  30328-4 0  9991,2 53635  53.2165 229.4899 0001192  77.0081 283.1045 15.08838701 25534,6917.884,95.438,540.574,538.925,0.0
53635.0,STARLINK-4587,PAYLOAD,2023-02-09 20:16:21,15.08795521,0.0001229,53.2167,229.1929,86.6443,273.469,0.0006179,9.548e-05,0.0,0 STARLINK-4587,1 53635U 22104AZ  23040.84469065  .00009548  00000-0  61790-3 0  9994,2 53635  53.2167 229.1929 0001229  86.6443 273.4690 15.08795521 26560,6918.016,95.44,540.732,539.031,0.0
53635.0,STARLINK-4587,PAYLOAD,2023-02-10 13:45:35,15.08835359,0.0001258,53.2168,225.9223,78.4394,281.674,7.3024e-05,8.74e-06,0.0,0 STARLINK-4587,1 53635U 22104AZ  23041.57332684  .00000874  00000-0  73024-4 0  9998,2 53635  53.2168 225.9223 0001258  78.4394 281.6740 15.08835359 25658,6917.895,95.438,540.63,538.889,0.0
